CUTE-1 (CO-55)          
1 27844U 03031E   26136.00384864  .00000181  00000+0  97302-4 0  9997
2 27844  98.6746 144.9673 0008299 280.4689  79.5555 14.24314554187090
CUBESAT XI-IV (CO-57)   
1 27848U 03031J   26136.25733554  .00000156  00000+0  87832-4 0  9991
2 27848  98.6777 144.9557 0008328 300.6849  59.3508 14.23602653186839
CUBESAT XI-V            
1 28895U 05043F   26135.37961343  .00000741  00000+0  12488-3 0  9994
2 28895  98.2948 290.3214 0013026 313.0591  46.9524 14.72539240 96922
CUTE-1.7+APD II (CO-65) 
1 32785U 08021C   26136.22680118  .00004054  00000+0  25948-3 0  9995
2 32785  97.8263 116.9926 0010231 130.6354 229.5766 15.09127109980374
CANX-2                  
1 32790U 08021H   26135.91972965  .00001813  00000+0  13091-3 0  9996
2 32790  97.8622 115.0813 0011413 144.6919 215.5065 15.05369927979950
SEEDS II (CO-66)        
1 32791U 08021J   26136.06857264  .00014281  00000+0  47041-3 0  9993
2 32791  97.7518 132.4640 0004895  78.0988 282.0801 15.31584920982375
SWISSCUBE               
1 35932U 09051B   26136.28542084  .00000652  00000+0  13861-3 0  9992
2 35932  98.4056  43.6166 0005965 322.8323  37.2464 14.62415203884497
BEESAT-1                
1 35933U 09051C   26136.20991604  .00000536  00000+0  11757-3 0  9994
2 35933  98.3985  43.2418 0004805 342.0079  18.0950 14.61664125884516
ITUPSAT1                
1 35935U 09051E   26136.24137998  .00000488  00000+0  11101-3 0  9997
2 35935  98.4071  42.4994 0007213 348.8166  11.2872 14.60388715884078
TISAT 1                 
1 36799U 10035E   26135.96164208  .00014721  00000+0  50297-3 0  9996
2 36799  98.0702  79.6898 0003274  47.9661 312.1856 15.30409607862779
AEROCUBE 4.5A           
1 38767U 12048K   26136.12514502  .00157677  00000+0  87660-3 0  9996
2 38767  64.6277 142.5408 0018642 216.9240 143.0632 15.78541122367577
STRAND-1                
1 39090U 13009E   26136.23864622  .00000179  00000+0  74614-4 0  9997
2 39090  98.3916 317.2609 0007996 334.1932  25.8855 14.37143213692473
BRITE-AUSTRIA           
1 39091U 13009F   26136.23780218  .00000106  00000+0  50563-4 0  9993
2 39091  98.3987 316.4658 0009733 342.4521  17.6328 14.36528521692465
NEE-01 PEGASO           
1 39151U 13018B   26136.17516207  .00001128  00000+0  11291-3 0  9997
2 39151  98.1181 279.2795 0011284 269.3037  90.6888 14.93491114705925
POPACS 2                
1 39269U 13055E   26136.09397583  .00010947  00000+0  18826-3 0  9993
2 39269  80.9921 180.9111 0418843 297.0355  58.8686 14.90467144658437
POPACS 3                
1 39270U 13055F   26135.33261708  .00010470  00000+0  24957-3 0  9993
2 39270  81.0011 264.7845 0554863 169.8998 191.3930 14.55296326633776
ZACUBE-1 (TSHEPISOSAT)  
1 39417U 13066B   26136.01013166  .00003046  00000+0  23977-3 0  9999
2 39417  97.8121  98.1725 0041480   1.2359 358.8959 15.00925205675906
WNISAT-1                
1 39423U 13066H   26135.68227337  .00000271  00000+0  58541-4 0  9998
2 39423  97.7161 287.1531 0162481 334.7562  24.5760 14.58019557661993
TRITON-1                
1 39427U 13066M   26136.14940920  .00001297  00000+0  16106-3 0  9993
2 39427  97.8272  46.6863 0089904 339.8648  19.9026 14.81556316669341
GOMX-1                  
1 39430U 13066Q   26136.31642662  .00001071  00000+0  16753-3 0  9996
2 39430  97.6509 338.7899 0128698 179.2013 180.9424 14.69324424665230
CUBEBUG-2 (LO-74)       
1 39440U 13066AA  26135.50473416  .00001544  00000+0  14750-3 0  9996
2 39440  97.8895  84.3567 0058996 134.5772 226.0286 14.93498977672111
NEE-02 KRYSAOR          
1 39441U 13066AB  26135.76507298  .00000906  00000+0  10492-3 0  9991
2 39441  97.8883  75.2178 0066291 174.6978 185.4954 14.86488596671382
FUNCUBE-1 (AO-73)       
1 39444U 13066AE  26136.03418150  .00004767  00000+0  30119-3 0  9990
2 39444  97.8262 106.8233 0035028 315.6703  44.1721 15.09049218674810
UWE-3                   
1 39446U 13066AG  26135.86180140  .00002511  00000+0  21952-3 0  9997
2 39446  97.8682  91.7306 0050566  67.9913 292.6669 14.96731999672745
BRITE-CA1 (TORONTO)     
1 40020U 14033L   26136.23941978  .00000422  00000+0  71162-4 0  9996
2 40020  97.9693 265.7654 0079040  20.2003 340.2302 14.72630573637517
DUCHIFAT-1              
1 40021U 14033M   26136.29892671  .00085060  00000+0  10980-2 0  9998
2 40021  98.0502 191.1416 0006067 177.5607 182.5678 15.58674895650778
NANOSATC-BR1            
1 40024U 14033Q   26136.24321309  .00014711  00000+0  50307-3 0  9994
2 40024  98.0743 165.8253 0001692 305.8001  54.3080 15.30384614649091
QB50P1                  
1 40025U 14033R   26136.17988469  .00006537  00000+0  32749-3 0  9990
2 40025  98.0974 145.0946 0008018 347.4822  12.6209 15.17732199648177
QB50P2                  
1 40032U 14033Y   26136.13146014  .00005263  00000+0  28799-3 0  9991
2 40032  98.0751 131.0291 0005717 288.7339  71.3271 15.14720980647812
PERSEUS-M2              
1 40037U 14033AD  26136.28073541  .00001565  00000+0  14699-3 0  9991
2 40037  97.9946  86.1776 0013302  50.4850 309.7544 14.95406377646011
