OBJECT_NAME,OBJECT_ID,EPOCH,MEAN_MOTION,ECCENTRICITY,INCLINATION,RA_OF_ASC_NODE,ARG_OF_PERICENTER,MEAN_ANOMALY,EPHEMERIS_TYPE,CLASSIFICATION_TYPE,NORAD_CAT_ID,ELEMENT_SET_NO,REV_AT_EPOCH,BSTAR,MEAN_MOTION_DOT,MEAN_MOTION_DDOT
CUTE-1 (CO-55),2003-031E,2026-05-16T00:05:32.522496,14.24314554,.00082996,98.6746,144.9673,280.4689,79.5555,0,U,27844,999,18709,.97301923E-4,.181E-5,0
CUBESAT XI-IV (CO-57),2003-031J,2026-05-16T06:10:33.790656,14.23602653,.00083285,98.6777,144.9557,300.6849,59.3508,0,U,27848,999,18683,.87831751E-4,.156E-5,0
CUBESAT XI-V,2005-043F,2026-05-15T09:06:38.600352,14.72539240,.00130267,98.2948,290.3214,313.0591,46.9524,0,U,28895,999,9692,.1248788E-3,.741E-5,0
CUTE-1.7+APD II (CO-65),2008-021C,2026-05-16T05:26:35.621952,15.09127109,.00102314,97.8263,116.9926,130.6354,229.5766,0,U,32785,999,98037,.25948479E-3,.4054E-4,0
CANX-2,2008-021H,2026-05-15T22:04:24.641760,15.05369927,.0011413,97.8622,115.0813,144.6919,215.5065,0,U,32790,999,97995,.13090769E-3,.1813E-4,0
SEEDS II (CO-66),2008-021J,2026-05-16T01:38:44.676096,15.31584920,.00048954,97.7518,132.4640,78.0988,282.0801,0,U,32791,999,98237,.47041047E-3,.14281E-3,0
SWISSCUBE,2009-051B,2026-05-16T06:51:00.360576,14.62415203,.00059653,98.4056,43.6166,322.8323,37.2464,0,U,35932,999,88449,.13860992E-3,.652E-5,0
BEESAT-1,2009-051C,2026-05-16T05:02:16.745856,14.61664125,.00048053,98.3985,43.2418,342.0079,18.0950,0,U,35933,999,88451,.11756912E-3,.536E-5,0
ITUPSAT1,2009-051E,2026-05-16T05:47:35.230272,14.60388715,.0007213,98.4071,42.4994,348.8166,11.2872,0,U,35935,999,88407,.11101324E-3,.488E-5,0
TISAT 1,2010-035E,2026-05-15T23:04:45.875712,15.30409607,.00032741,98.0702,79.6898,47.9661,312.1856,0,U,36799,999,86277,.5029717E-3,.14721E-3,0
AEROCUBE 4.5A,2012-048K,2026-05-16T03:00:12.529728,15.78541122,.00186423,64.6277,142.5408,216.9240,143.0632,0,U,38767,999,36757,.87660034E-3,.157677E-2,0
STRAND-1,2013-009E,2026-05-16T05:43:39.033408,14.37143213,.0007996,98.3916,317.2609,334.1932,25.8855,0,U,39090,999,69247,.74614291E-4,.179E-5,0
BRITE-AUSTRIA,2013-009F,2026-05-16T05:42:26.108352,14.36528521,.00097333,98.3987,316.4658,342.4521,17.6328,0,U,39091,999,69246,.50562549E-4,.106E-5,0
NEE-01 PEGASO,2013-018B,2026-05-16T04:12:14.002848,14.93491114,.00112843,98.1181,279.2795,269.3037,90.6888,0,U,39151,999,70592,.11291435E-3,.1128E-4,0
POPACS 2,2013-055E,2026-05-16T02:15:19.511712,14.90467144,.04188432,80.9921,180.9111,297.0355,58.8686,0,U,39269,999,65843,.18825649E-3,.10947E-3,0
POPACS 3,2013-055F,2026-05-15T07:58:58.115712,14.55296326,.05548639,81.0011,264.7845,169.8998,191.3930,0,U,39270,999,63377,.24956916E-3,.1047E-3,0
ZACUBE-1 (TSHEPISOSAT),2013-066B,2026-05-16T00:14:35.375424,15.00925205,.00414801,97.8121,98.1725,1.2359,358.8959,0,U,39417,999,67590,.23976676E-3,.3046E-4,0
WNISAT-1,2013-066H,2026-05-15T16:22:28.419168,14.58019557,.01624812,97.7161,287.1531,334.7562,24.5760,0,U,39423,999,66199,.58541048E-4,.271E-5,0
TRITON-1,2013-066M,2026-05-16T03:35:08.954880,14.81556316,.00899047,97.8272,46.6863,339.8648,19.9026,0,U,39427,999,66934,.16106384E-3,.1297E-4,0
GOMX-1,2013-066Q,2026-05-16T07:35:39.259968,14.69324424,.01286982,97.6509,338.7899,179.2013,180.9424,0,U,39430,999,66523,.16753095E-3,.1071E-4,0
CUBEBUG-2 (LO-74),2013-066AA,2026-05-15T12:06:49.031424,14.93498977,.00589964,97.8895,84.3567,134.5772,226.0286,0,U,39440,999,67211,.1474951E-3,.1544E-4,0
NEE-02 KRYSAOR,2013-066AB,2026-05-15T18:21:42.305472,14.86488596,.00662914,97.8883,75.2178,174.6978,185.4954,0,U,39441,999,67138,.10492172E-3,.906E-5,0
FUNCUBE-1 (AO-73),2013-066AE,2026-05-16T00:49:13.281600,15.09049218,.00350288,97.8262,106.8233,315.6703,44.1721,0,U,39444,999,67481,.30119095E-3,.4767E-4,0
UWE-3,2013-066AG,2026-05-15T20:40:59.640960,14.96731999,.00505664,97.8682,91.7306,67.9913,292.6669,0,U,39446,999,67274,.21951803E-3,.2511E-4,0
BRITE-CA1 (TORONTO),2014-033L,2026-05-16T05:44:45.868992,14.72630573,.00790402,97.9693,265.7654,20.2003,340.2302,0,U,40020,999,63751,.71161561E-4,.422E-5,0
DUCHIFAT-1,2014-033M,2026-05-16T07:10:27.267744,15.58674895,.00060672,98.0502,191.1416,177.5607,182.5678,0,U,40021,999,65077,.10979536E-2,.8506E-3,0
NANOSATC-BR1,2014-033Q,2026-05-16T05:50:13.610976,15.30384614,.00016928,98.0743,165.8253,305.8001,54.3080,0,U,40024,999,64909,.50306884E-3,.14711E-3,0
QB50P1,2014-033R,2026-05-16T04:19:02.037216,15.17732199,.00080185,98.0974,145.0946,347.4822,12.6209,0,U,40025,999,64817,.32749314E-3,.6537E-4,0
QB50P2,2014-033Y,2026-05-16T03:09:18.156096,15.14720980,.00057173,98.0751,131.0291,288.7339,71.3271,0,U,40032,999,64781,.28799283E-3,.5263E-4,0
PERSEUS-M2,2014-033AD,2026-05-16T06:44:15.539424,14.95406377,.00133027,97.9946,86.1776,50.4850,309.7544,0,U,40037,999,64601,.14699428E-3,.1565E-4,0
